NAVSTAR 77 (USA 289)    
1 43873U 18109A   23284.55016354  .00000068  00000+0  00000+0 0  9994
2 43873  55.2048 130.8942 0026362 189.8172 347.5460  2.00570367 35426
